[{"OBJECT_NAME":"KUIPER-00132","OBJECT_ID":"2025-217B","EPOCH":"2026-03-04T03:58:58.964736","MEAN_MOTION":15.39515128,"ECCENTRICITY":0.00066674,"INCLINATION":51.862,"RA_OF_ASC_NODE":30.3106,"ARG_OF_PERICENTER":315.5732,"MEAN_ANOMALY":44.472,"EPHEMERIS_TYPE":0,"CLASSIFICATION_TYPE":"U","NORAD_CAT_ID":65763,"ELEMENT_SET_NO":999,"REV_AT_EPOCH":2457,"BSTAR":0.0011202658,"MEAN_MOTION_DOT":0.00044589,"MEAN_MOTION_DDOT":0},{"OBJECT_NAME":"KUIPER-00133","OBJECT_ID":"2025-217C","EPOCH":"2026-03-04T05:40:08.791968","MEAN_MOTION":14.79953561,"ECCENTRICITY":0.00021129,"INCLINATION":51.9037,"RA_OF_ASC_NODE":77.2335,"ARG_OF_PERICENTER":14.0409,"MEAN_ANOMALY":346.0612,"EPHEMERIS_TYPE":0,"CLASSIFICATION_TYPE":"U","NORAD_CAT_ID":65764,"ELEMENT_SET_NO":999,"REV_AT_EPOCH":2393,"BSTAR":0.00081315005,"MEAN_MOTION_DOT":5.986e-5,"MEAN_MOTION_DDOT":0},{"OBJECT_NAME":"KUIPER-00139","OBJECT_ID":"2025-217D","EPOCH":"2026-03-04T09:15:06.271200","MEAN_MOTION":15.01785245,"ECCENTRICITY":0.00071241,"INCLINATION":51.8863,"RA_OF_ASC_NODE":58.0808,"ARG_OF_PERICENTER":302.6828,"MEAN_ANOMALY":57.3456,"EPHEMERIS_TYPE":0,"CLASSIFICATION_TYPE":"U","NORAD_CAT_ID":65765,"ELEMENT_SET_NO":999,"REV_AT_EPOCH":2421,"BSTAR":0.0011755541,"MEAN_MOTION_DOT":0.0001526,"MEAN_MOTION_DDOT":0},{"OBJECT_NAME":"KUIPER-00142","OBJECT_ID":"2025-217E","EPOCH":"2026-03-04T10:10:33.799584","MEAN_MOTION":14.79930288,"ECCENTRICITY":6.653e-5,"INCLINATION":51.8996,"RA_OF_ASC_NODE":58.8754,"ARG_OF_PERICENTER":84.449,"MEAN_ANOMALY":275.6549,"EPHEMERIS_TYPE":0,"CLASSIFICATION_TYPE":"U","NORAD_CAT_ID":65766,"ELEMENT_SET_NO":999,"REV_AT_EPOCH":2420,"BSTAR":0.00010996177,"MEAN_MOTION_DOT":6.17e-6,"MEAN_MOTION_DDOT":0},{"OBJECT_NAME":"KUIPER-00145","OBJECT_ID":"2025-217F","EPOCH":"2026-03-04T08:29:17.868192","MEAN_MOTION":14.79936126,"ECCENTRICITY":6.8e-5,"INCLINATION":51.8981,"RA_OF_ASC_NODE":61.6991,"ARG_OF_PERICENTER":82.0877,"MEAN_ANOMALY":278.0163,"EPHEMERIS_TYPE":0,"CLASSIFICATION_TYPE":"U","NORAD_CAT_ID":65767,"ELEMENT_SET_NO":999,"REV_AT_EPOCH":2415,"BSTAR":0.00089382981,"MEAN_MOTION_DOT":6.6e-5,"MEAN_MOTION_DDOT":0},{"OBJECT_NAME":"KUIPER-00147","OBJECT_ID":"2025-217G","EPOCH":"2026-03-04T04:22:25.807296","MEAN_MOTION":14.79959043,"ECCENTRICITY":8.917e-5,"INCLINATION":51.9003,"RA_OF_ASC_NODE":64.9535,"ARG_OF_PERICENTER":118.2829,"MEAN_ANOMALY":241.8224,"EPHEMERIS_TYPE":0,"CLASSIFICATION_TYPE":"U","NORAD_CAT_ID":65768,"ELEMENT_SET_NO":999,"REV_AT_EPOCH":2409,"BSTAR":0.00011301227,"MEAN_MOTION_DOT":6.41e-6,"MEAN_MOTION_DDOT":0},{"OBJECT_NAME":"KUIPER-00148","OBJECT_ID":"2025-217H","EPOCH":"2026-03-04T09:01:40.048608","MEAN_MOTION":15.09570829,"ECCENTRICITY":0.000859,"INCLINATION":51.8786,"RA_OF_ASC_NODE":49.2745,"ARG_OF_PERICENTER":336.7362,"MEAN_ANOMALY":23.3223,"EPHEMERIS_TYPE":0,"CLASSIFICATION_TYPE":"U","NORAD_CAT_ID":65769,"ELEMENT_SET_NO":999,"REV_AT_EPOCH":2433,"BSTAR":0.0011171017,"MEAN_MOTION_DOT":0.0001792,"MEAN_MOTION_DDOT":0},{"OBJECT_NAME":"KUIPER-00150","OBJECT_ID":"2025-217J","EPOCH":"2026-03-04T17:04:35.981184","MEAN_MOTION":14.80000789,"ECCENTRICITY":7.14e-5,"INCLINATION":51.9004,"RA_OF_ASC_NODE":72.6164,"ARG_OF_PERICENTER":49.96,"MEAN_ANOMALY":310.1425,"EPHEMERIS_TYPE":0,"CLASSIFICATION_TYPE":"U","NORAD_CAT_ID":65770,"ELEMENT_SET_NO":999,"REV_AT_EPOCH":2403,"BSTAR":0.00076897,"MEAN_MOTION_DOT":5.655e-5,"MEAN_MOTION_DDOT":0},{"OBJECT_NAME":"KUIPER-00151","OBJECT_ID":"2025-217K","EPOCH":"2026-03-04T07:32:59.522784","MEAN_MOTION":14.79967528,"ECCENTRICITY":0.00010291,"INCLINATION":51.9008,"RA_OF_ASC_NODE":66.8695,"ARG_OF_PERICENTER":49.5936,"MEAN_ANOMALY":310.5116,"EPHEMERIS_TYPE":0,"CLASSIFICATION_TYPE":"U","NORAD_CAT_ID":65771,"ELEMENT_SET_NO":999,"REV_AT_EPOCH":2408,"BSTAR":0.00093651059,"MEAN_MOTION_DOT":6.931e-5,"MEAN_MOTION_DDOT":0},{"OBJECT_NAME":"KUIPER-00152","OBJECT_ID":"2025-217L","EPOCH":"2026-03-04T08:41:01.877856","MEAN_MOTION":14.79979445,"ECCENTRICITY":7.832e-5,"INCLINATION":51.9002,"RA_OF_ASC_NODE":54.1533,"ARG_OF_PERICENTER":132.1888,"MEAN_ANOMALY":227.9141,"EPHEMERIS_TYPE":0,"CLASSIFICATION_TYPE":"U","NORAD_CAT_ID":65772,"ELEMENT_SET_NO":999,"REV_AT_EPOCH":2426,"BSTAR":0.00070842487,"MEAN_MOTION_DOT":5.189e-5,"MEAN_MOTION_DDOT":0},{"OBJECT_NAME":"KUIPER-00153","OBJECT_ID":"2025-217M","EPOCH":"2026-03-04T07:33:48.487392","MEAN_MOTION":15.13107826,"ECCENTRICITY":0.00104968,"INCLINATION":51.8776,"RA_OF_ASC_NODE":52.5687,"ARG_OF_PERICENTER":308.9568,"MEAN_ANOMALY":51.0473,"EPHEMERIS_TYPE":0,"CLASSIFICATION_TYPE":"U","NORAD_CAT_ID":65773,"ELEMENT_SET_NO":999,"REV_AT_EPOCH":2428,"BSTAR":0.0011894736,"MEAN_MOTION_DOT":0.00021108,"MEAN_MOTION_DDOT":0},{"OBJECT_NAME":"KUIPER-00155","OBJECT_ID":"2025-217N","EPOCH":"2026-03-04T05:14:55.919328","MEAN_MOTION":15.22979615,"ECCENTRICITY":0.00054689,"INCLINATION":51.8788,"RA_OF_ASC_NODE":37.3958,"ARG_OF_PERICENTER":313.3236,"MEAN_ANOMALY":46.7289,"EPHEMERIS_TYPE":0,"CLASSIFICATION_TYPE":"U","NORAD_CAT_ID":65774,"ELEMENT_SET_NO":999,"REV_AT_EPOCH":2448,"BSTAR":0.0011502187,"MEAN_MOTION_DOT":0.00027177,"MEAN_MOTION_DDOT":0},{"OBJECT_NAME":"KUIPER-00156","OBJECT_ID":"2025-217P","EPOCH":"2026-03-04T16:06:23.172192","MEAN_MOTION":14.79937184,"ECCENTRICITY":7.37e-5,"INCLINATION":51.9045,"RA_OF_ASC_NODE":47.8136,"ARG_OF_PERICENTER":102.888,"MEAN_ANOMALY":257.2165,"EPHEMERIS_TYPE":0,"CLASSIFICATION_TYPE":"U","NORAD_CAT_ID":65775,"ELEMENT_SET_NO":999,"REV_AT_EPOCH":2437,"BSTAR":-0.00034929,"MEAN_MOTION_DOT":-2.883e-5,"MEAN_MOTION_DDOT":0},{"OBJECT_NAME":"KUIPER-00158","OBJECT_ID":"2025-217Q","EPOCH":"2026-03-04T17:48:30.792384","MEAN_MOTION":14.80481124,"ECCENTRICITY":0.0001045,"INCLINATION":51.8966,"RA_OF_ASC_NODE":67.3615,"ARG_OF_PERICENTER":43.5927,"MEAN_ANOMALY":316.5118,"EPHEMERIS_TYPE":0,"CLASSIFICATION_TYPE":"U","NORAD_CAT_ID":65776,"ELEMENT_SET_NO":999,"REV_AT_EPOCH":2411,"BSTAR":0.00090886,"MEAN_MOTION_DOT":6.804e-5,"MEAN_MOTION_DDOT":0},{"OBJECT_NAME":"KUIPER-00163","OBJECT_ID":"2025-217R","EPOCH":"2026-03-04T20:00:03.000384","MEAN_MOTION":14.93137614,"ECCENTRICITY":0.0001405,"INCLINATION":51.8969,"RA_OF_ASC_NODE":68.8803,"ARG_OF_PERICENTER":351.4797,"MEAN_ANOMALY":90.3975,"EPHEMERIS_TYPE":0,"CLASSIFICATION_TYPE":"U","NORAD_CAT_ID":65777,"ELEMENT_SET_NO":999,"REV_AT_EPOCH":543,"BSTAR":0.011172,"MEAN_MOTION_DOT":0.00119566,"MEAN_MOTION_DDOT":0},{"OBJECT_NAME":"KUIPER-00165","OBJECT_ID":"2025-217S","EPOCH":"2026-03-04T09:21:52.507584","MEAN_MOTION":14.80003991,"ECCENTRICITY":8.943e-5,"INCLINATION":51.9012,"RA_OF_ASC_NODE":59.0309,"ARG_OF_PERICENTER":110.3797,"MEAN_ANOMALY":249.7261,"EPHEMERIS_TYPE":0,"CLASSIFICATION_TYPE":"U","NORAD_CAT_ID":65778,"ELEMENT_SET_NO":999,"REV_AT_EPOCH":2419,"BSTAR":0.00071895397,"MEAN_MOTION_DOT":5.273e-5,"MEAN_MOTION_DDOT":0},{"OBJECT_NAME":"KUIPER-00166","OBJECT_ID":"2025-217T","EPOCH":"2026-03-04T08:52:46.758432","MEAN_MOTION":14.79982865,"ECCENTRICITY":7.792e-5,"INCLINATION":51.9027,"RA_OF_ASC_NODE":46.6429,"ARG_OF_PERICENTER":112.6031,"MEAN_ANOMALY":247.5013,"EPHEMERIS_TYPE":0,"CLASSIFICATION_TYPE":"U","NORAD_CAT_ID":65779,"ELEMENT_SET_NO":999,"REV_AT_EPOCH":2436,"BSTAR":0.0011528817,"MEAN_MOTION_DOT":8.589e-5,"MEAN_MOTION_DDOT":0}]
